{"type": "FeatureCollection", "features": [ {"type": "Feature", "properties": {"norad_id": 34141, "name": "COSMOS 2251 DEB", "group": "cosmos-2251-debris", "lat": -40.78187855937304, "lon": -8.799648127667522, "alt_km": 755.1190635009016, "timestamp": "2025-12-25T03:55:56.761133+00:00", "meta": {"OBJECT_NAME": "COSMOS 2251 DEB", "OBJECT_ID": "1993-036LN", "EPOCH": "2025-12-24T01:52:52.840704", "MEAN_MOTION": 14.49348832, "ECCENTRICITY": 0.00464892, "INCLINATION": 74.0112, "RA_OF_ASC_NODE": 7.5586, "ARG_OF_PERICENTER": 89.6823, "MEAN_ANOMALY": 326.7238, "EPHEMERIS_TYPE": 0, "CLASSIFICATION_TYPE": "U", "NORAD_CAT_ID": 34141, "ELEMENT_SET_NO": 999, "REV_AT_EPOCH": 87858, "BSTAR": 0.0013987353, "MEAN_MOTION_DOT": 5.394e-05, "MEAN_MOTION_DDOT": 0}, "tle": {"line1": "1 34141U 93036LN  25358.07838936  .00005394  00000+0  13987-2 0  9991", "line2": "2 34141  74.0112   7.5586 0046489  89.6823 326.7238 14.49348832878581"}}, "geometry": {"type": "Point", "coordinates": [-8.799648127667522, -40.78187855937304]}}, {"type": "Feature", "properties": {"norad_id": 34270, "name": "COSMOS 2251 DEB", "group": "cosmos-2251-debris", "lat": -73.2921582020381, "lon": 175.46859993822673, "alt_km": 716.234913323191, "timestamp": "2025-12-25T03:55:56.761144+00:00", "meta": {"OBJECT_NAME": "COSMOS 2251 DEB", "OBJECT_ID": "1993-036LQ", "EPOCH": "2025-12-24T20:10:25.019040", "MEAN_MOTION": 14.65254821, "ECCENTRICITY": 0.0048143, "INCLINATION": 74.0117, "RA_OF_ASC_NODE": 283.3075, "ARG_OF_PERICENTER": 72.3856, "MEAN_ANOMALY": 288.2561, "EPHEMERIS_TYPE": 0, "CLASSIFICATION_TYPE": "U", "NORAD_CAT_ID": 34270, "ELEMENT_SET_NO": 999, "REV_AT_EPOCH": 89273, "BSTAR": 0.0006065, "MEAN_MOTION_DOT": 3.294e-05, "MEAN_MOTION_DDOT": 0}, "tle": {"line1": "1 34270U 93036LQ  25358.84056735  .00003294  00000+0  60650-3 0  9995", "line2": "2 34270  74.0117 283.3075 0048143  72.3856 288.2561 14.65254821892736"}}, "geometry": {"type": "Point", "coordinates": [175.46859993822673, -73.2921582020381]}}, {"type": "Feature", "properties": {"norad_id": 34271, "name": "COSMOS 2251 DEB", "group": "cosmos-2251-debris", "lat": 68.4537792310421, "lon": -51.34954957039376, "alt_km": 657.8220137656717, "timestamp": "2025-12-25T03:55:56.761154+00:00", "meta": {"OBJECT_NAME": "COSMOS 2251 DEB", "OBJECT_ID": "1993-036LR", "EPOCH": "2025-12-23T18:54:03.787776", "MEAN_MOTION": 14.70993585, "ECCENTRICITY": 0.00182001, "INCLINATION": 74.0195, "RA_OF_ASC_NODE": 177.8583, "ARG_OF_PERICENTER": 231.0975, "MEAN_ANOMALY": 148.2753, "EPHEMERIS_TYPE": 0, "CLASSIFICATION_TYPE": "U", "NORAD_CAT_ID": 34271, "ELEMENT_SET_NO": 999, "REV_AT_EPOCH": 88397, "BSTAR": 0.0021218161, "MEAN_MOTION_DOT": 0.00013043, "MEAN_MOTION_DDOT": 0}, "tle": {"line1": "1 34271U 93036LR  25357.78754384  .00013043  00000+0  21218-2 0  9992", "line2": "2 34271  74.0195 177.8583 0018200 231.0975 148.2753 14.70993585883978"}}, "geometry": {"type": "Point", "coordinates": [-51.34954957039376, 68.4537792310421]}}, {"type": "Feature", "properties": {"norad_id": 34273, "name": "COSMOS 2251 DEB", "group": "cosmos-2251-debris", "lat": 51.65996028738969, "lon": 84.89168092466008, "alt_km": 690.3591850271041, "timestamp": "2025-12-25T03:55:56.761164+00:00", "meta": {"OBJECT_NAME": "COSMOS 2251 DEB", "OBJECT_ID": "1993-036LT", "EPOCH": "2025-12-24T04:49:23.748384", "MEAN_MOTION": 14.61322238, "ECCENTRICITY": 0.00134439, "INCLINATION": 74.0358, "RA_OF_ASC_NODE": 65.5124, "ARG_OF_PERICENTER": 191.0233, "MEAN_ANOMALY": 200.3987, "EPHEMERIS_TYPE": 0, "CLASSIFICATION_TYPE": "U", "NORAD_CAT_ID": 34273, "ELEMENT_SET_NO": 999, "REV_AT_EPOCH": 88789, "BSTAR": 0.00091011467, "MEAN_MOTION_DOT": 4.475e-05, "MEAN_MOTION_DDOT": 0}, "tle": {"line1": "1 34273U 93036LT  25358.20096931  .00004475  00000+0  91011-3 0  9997", "line2": "2 34273  74.0358  65.5124 0013443 191.0233 200.3987 14.61322238887896"}}, "geometry": {"type": "Point", "coordinates": [84.89168092466008, 51.65996028738969]}}, {"type": "Feature", "properties": {"norad_id": 34274, "name": "COSMOS 2251 DEB", "group": "cosmos-2251-debris", "lat": -58.992709655668236, "lon": 16.119486464415175, "alt_km": 687.60585349763, "timestamp": "2025-12-25T03:55:56.761174+00:00", "meta": {"OBJECT_NAME": "COSMOS 2251 DEB", "OBJECT_ID": "1993-036LU", "EPOCH": "2025-12-24T20:32:54.155040", "MEAN_MOTION": 14.64913316, "ECCENTRICITY": 0.0021321, "INCLINATION": 74.0036, "RA_OF_ASC_NODE": 45.2207, "ARG_OF_PERICENTER": 194.0957, "MEAN_ANOMALY": 280.7564, "EPHEMERIS_TYPE": 0, "CLASSIFICATION_TYPE": "U", "NORAD_CAT_ID": 34274, "ELEMENT_SET_NO": 999, "REV_AT_EPOCH": 88853, "BSTAR": 0.0010236, "MEAN_MOTION_DOT": 5.466e-05, "MEAN_MOTION_DDOT": 0}, "tle": {"line1": "1 34274U 93036LU  25358.85618235  .00005466  00000+0  10236-2 0  9996", "line2": "2 34274  74.0036  45.2207 0021321 194.0957 280.7564 14.64913316888538"}}, "geometry": {"type": "Point", "coordinates": [16.119486464415175, -58.992709655668236]}}, {"type": "Feature", "properties": {"norad_id": 34276, "name": "COSMOS 2251 DEB", "group": "cosmos-2251-debris", "lat": -68.61256967170706, "lon": -71.28662649283088, "alt_km": 698.3742052202833, "timestamp": "2025-12-25T03:55:56.761195+00:00", "meta": {"OBJECT_NAME": "COSMOS 2251 DEB", "OBJECT_ID": "1993-036LW", "EPOCH": "2025-12-24T14:09:10.900800", "MEAN_MOTION": 14.57301184, "ECCENTRICITY": 0.0022132, "INCLINATION": 74.0232, "RA_OF_ASC_NODE": 62.7903, "ARG_OF_PERICENTER": 208.4248, "MEAN_ANOMALY": 276.0759, "EPHEMERIS_TYPE": 0, "CLASSIFICATION_TYPE": "U", "NORAD_CAT_ID": 34276, "ELEMENT_SET_NO": 999, "REV_AT_EPOCH": 88765, "BSTAR": 0.00069146, "MEAN_MOTION_DOT": 3.111e-05, "MEAN_MOTION_DDOT": 0}, "tle": {"line1": "1 34276U 93036LW  25358.58970950  .00003111  00000+0  69146-3 0  9993", "line2": "2 34276  74.0232  62.7903 0022132 208.4248 276.0759 14.57301184887651"}}, "geometry": {"type": "Point", "coordinates": [-71.28662649283088, -68.61256967170706]}}, {"type": "Feature", "properties": {"norad_id": 34297, "name": "COSMOS 2251 DEB", "group": "cosmos-2251-debris", "lat": 61.16248027080106, "lon": -67.28554171524281, "alt_km": 765.0354540549897, "timestamp": "2025-12-25T03:55:56.761206+00:00", "meta": {"OBJECT_NAME": "COSMOS 2251 DEB", "OBJECT_ID": "1993-036MT", "EPOCH": "2025-12-24T19:33:54.874944", "MEAN_MOTION": 14.36639186, "ECCENTRICITY": 0.0017733, "INCLINATION": 74.0486, "RA_OF_ASC_NODE": 262.0591, "ARG_OF_PERICENTER": 328.5627, "MEAN_ANOMALY": 94.5702, "EPHEMERIS_TYPE": 0, "CLASSIFICATION_TYPE": "U", "NORAD_CAT_ID": 34297, "ELEMENT_SET_NO": 999, "REV_AT_EPOCH": 88238, "BSTAR": 0.00012823, "MEAN_MOTION_DOT": 3.52e-06, "MEAN_MOTION_DDOT": 0}, "tle": {"line1": "1 34297U 93036MT  25358.81521846  .00000352  00000+0  12823-3 0  9992", "line2": "2 34297  74.0486 262.0591 0017733 328.5627  94.5702 14.36639186882388"}}, "geometry": {"type": "Point", "coordinates": [-67.28554171524281, 61.16248027080106]}}, {"type": "Feature", "properties": {"norad_id": 34301, "name": "COSMOS 2251 DEB", "group": "cosmos-2251-debris", "lat": 5.510877204504853, "lon": 143.58495312382468, "alt_km": 621.5607521324191, "timestamp": "2025-12-25T03:55:56.761217+00:00", "meta": {"OBJECT_NAME": "COSMOS 2251 DEB", "OBJECT_ID": "1993-036MX", "EPOCH": "2025-12-24T16:38:23.984160", "MEAN_MOTION": 14.85135412, "ECCENTRICITY": 0.000997, "INCLINATION": 74.0058, "RA_OF_ASC_NODE": 142.9348, "ARG_OF_PERICENTER": 206.3023, "MEAN_ANOMALY": 164.9196, "EPHEMERIS_TYPE": 0, "CLASSIFICATION_TYPE": "U", "NORAD_CAT_ID": 34301, "ELEMENT_SET_NO": 999, "REV_AT_EPOCH": 88578, "BSTAR": 0.0037713, "MEAN_MOTION_DOT": 0.00032427, "MEAN_MOTION_DDOT": 0}, "tle": {"line1": "1 34301U 93036MX  25358.69333315  .00032427  00000+0  37713-2 0  9998", "line2": "2 34301  74.0058 142.9348 0009970 206.3023 164.9196 14.85135412885785"}}, "geometry": {"type": "Point", "coordinates": [143.58495312382468, 5.510877204504853]}}, {"type": "Feature", "properties": {"norad_id": 34302, "name": "COSMOS 2251 DEB", "group": "cosmos-2251-debris", "lat": -38.88489953145293, "lon": -65.93479152052554, "alt_km": 768.1946306853233, "timestamp": "2025-12-25T03:55:56.761227+00:00", "meta": {"OBJECT_NAME": "COSMOS 2251 DEB", "OBJECT_ID": "1993-036MY", "EPOCH": "2025-12-24T17:27:18.249120", "MEAN_MOTION": 14.39374231, "ECCENTRICITY": 0.0079472, "INCLINATION": 74.1782, "RA_OF_ASC_NODE": 101.6441, "ARG_OF_PERICENTER": 313.5556, "MEAN_ANOMALY": 166.7861, "EPHEMERIS_TYPE": 0, "CLASSIFICATION_TYPE": "U", "NORAD_CAT_ID": 34302, "ELEMENT_SET_NO": 999, "REV_AT_EPOCH": 87893, "BSTAR": 0.00057788, "MEAN_MOTION_DOT": 1.838e-05, "MEAN_MOTION_DDOT": 0}, "tle": {"line1": "1 34302U 93036MY  25358.72729455  .00001838  00000+0  57788-3 0  9994", "line2": "2 34302  74.1782 101.6441 0079472 313.5556 166.7861 14.39374231878934"}}, "geometry": {"type": "Point", "coordinates": [-65.93479152052554, -38.88489953145293]}}, {"type": "Feature", "properties": {"norad_id": 34303, "name": "COSMOS 2251 DEB", "group": "cosmos-2251-debris", "lat": 1.2102424079859635, "lon": -95.16402418402339, "alt_km": 637.2262787473692, "timestamp": "2025-12-25T03:55:56.761238+00:00", "meta": {"OBJECT_NAME": "COSMOS 2251 DEB", "OBJECT_ID": "1993-036MZ", "EPOCH": "2025-12-24T19:57:51.942816", "MEAN_MOTION": 14.54611261, "ECCENTRICITY": 0.0135608, "INCLINATION": 74.0051, "RA_OF_ASC_NODE": 265.118, "ARG_OF_PERICENTER": 40.471, "MEAN_ANOMALY": 24.0163, "EPHEMERIS_TYPE": 0, "CLASSIFICATION_TYPE": "U", "NORAD_CAT_ID": 34303, "ELEMENT_SET_NO": 999, "REV_AT_EPOCH": 88138, "BSTAR": 0.0015125, "MEAN_MOTION_DOT": 7.283e-05, "MEAN_MOTION_DDOT": 0}, "tle": {"line1": "1 34303U 93036MZ  25358.83185119  .00007283  00000+0  15125-2 0  9998", "line2": "2 34303  74.0051 265.1180 0135608  40.4710  24.0163 14.54611261881389"}}, "geometry": {"type": "Point", "coordinates": [-95.16402418402339, 1.2102424079859635]}}]}